NORAD_CAT_ID,OBJECT_NAME,OBJECT_TYPE,EPOCH,MEAN_MOTION,ECCENTRICITY,INCLINATION,RA_OF_ASC_NODE,ARG_OF_PERICENTER,MEAN_ANOMALY,BSTAR,MEAN_MOTION_DOT,MEAN_MOTION_DDOT,TLE_LINE0,TLE_LINE1,TLE_LINE2,SEMIMAJOR_AXIS,PERIOD,APOGEE,PERIGEE,DECAYED
53705.0,STARLINK-4717,PAYLOAD,2023-11-13 13:32:48,15.08852342,0.0001395,53.218,87.2304,85.1607,274.9545,0.00011408,1.529e-05,0.0,0 STARLINK-4717,1 53705U 22107F   23317.56444947  .00001529  00000-0  11408-3 0  9995,2 53705  53.2180  87.2304 0001395  85.1607 274.9545 15.08852342 66961,6917.843,95.437,540.673,538.743,0.0
53705.0,STARLINK-4717,PAYLOAD,2023-11-14 02:15:53,15.0884896,0.0001429,53.2175,84.8513,81.9415,278.1739,0.00014718,2.056e-05,0.0,0 STARLINK-4717,1 53705U 22107F   23318.09437020  .00002056  00000-0  14718-3 0  9991,2 53705  53.2175  84.8513 0001429  81.9415 278.1739 15.08848960 66297,6917.853,95.437,540.707,538.729,0.0
53705.0,STARLINK-4717,PAYLOAD,2023-11-14 11:48:12,15.08837757,0.0001928,53.2189,83.064,101.3593,258.7616,0.00018202,2.61e-05,0.0,0 STARLINK-4717,1 53705U 22107F   23318.49181666  .00002610  00000-0  18202-3 0  9995,2 53705  53.2189  83.0640 0001928 101.3593 258.7616 15.08837757 66359,6917.887,95.438,541.086,538.418,0.0
53705.0,STARLINK-4717,PAYLOAD,2023-11-14 14:58:59,15.08834831,0.0001331,53.2181,82.4726,89.6599,270.4546,7.4019e-05,8.9e-06,0.0,0 STARLINK-4717,1 53705U 22107F   23318.62429958  .00000890  00000-0  74019-4 0  9996,2 53705  53.2181  82.4726 0001331  89.6599 270.4546 15.08834831 67120,6917.896,95.438,540.682,538.84,0.0
53705.0,STARLINK-4717,PAYLOAD,2023-11-15 11:38:59,15.08870895,0.0001291,53.2183,78.6059,103.8335,256.2801,-0.0003953,-6.579e-05,0.0,0 STARLINK-4717,1 53705U 22107F   23319.48541003 -.00006579  00000-0 -39530-3 0  9997,2 53705  53.2183  78.6059 0001291 103.8335 256.2801 15.08870895 66507,6917.786,95.436,540.544,538.758,0.0
53705.0,STARLINK-4717,PAYLOAD,2023-11-15 13:14:22,15.08880698,0.0001252,53.2185,78.3086,92.2153,267.8983,-0.00052278,-8.608e-05,0.0,0 STARLINK-4717,1 53705U 22107F   23319.55164661 -.00008608  00000-0 -52278-3 0  9995,2 53705  53.2185  78.3086 0001252  92.2153 267.8983 15.08880698 67267,6917.756,95.435,540.487,538.755,0.0
53705.0,STARLINK-4717,PAYLOAD,2023-11-15 18:00:31,15.08881931,0.0001285,53.2184,77.4156,100.6289,259.4848,-0.00049457,-8.159e-05,0.0,0 STARLINK-4717,1 53705U 22107F   23319.75035943 -.00008159  00000-0 -49457-3 0  9993,2 53705  53.2184  77.4156 0001285 100.6289 259.4848 15.08881931 66542,6917.752,95.435,540.506,538.728,0.0
53705.0,STARLINK-4717,PAYLOAD,2023-11-16 08:19:00,15.08834216,0.0001781,53.2182,74.738,112.2872,247.8309,0.00010179,1.332e-05,0.0,0 STARLINK-4717,1 53705U 22107F   23320.34653913  .00001332  00000-0  10179-3 0  9996,2 53705  53.2182  74.7380 0001781 112.2872 247.8309 15.08834216 66634,6917.898,95.438,540.995,538.531,0.0
53705.0,STARLINK-4717,PAYLOAD,2023-11-17 11:20:34,15.08837156,0.0001928,53.2189,69.6809,122.8121,237.3057,7.8343e-05,9.59e-06,0.0,0 STARLINK-4717,1 53705U 22107F   23321.47261993  .00000959  00000-0  78343-4 0  9996,2 53705  53.2189  69.6809 0001928 122.8121 237.3057 15.08837156 66806,6917.889,95.438,541.088,538.42,0.0
53705.0,STARLINK-4717,PAYLOAD,2023-11-17 14:31:20,15.08836995,0.0001514,53.2191,69.092,113.1959,246.9193,4.3321e-05,4.01e-06,0.0,0 STARLINK-4717,1 53705U 22107F   23321.60510238  .00000401  00000-0  43321-4 0  9990,2 53705  53.2191  69.0920 0001514 113.1959 246.9193 15.08836995 67572,6917.89,95.438,540.802,538.707,0.0
53705.0,STARLINK-4717,PAYLOAD,2023-11-18 12:46:44,15.08837688,0.0001318,53.2193,64.9292,97.2289,262.8853,8.1716e-05,1.013e-05,0.0,0 STARLINK-4717,1 53705U 22107F   23322.53246423  .00001013  00000-0  81716-4 0  9995,2 53705  53.2193  64.9292 0001318  97.2289 262.8853 15.08837688 66962,6917.887,95.438,540.664,538.841,0.0
53705.0,STARLINK-4717,PAYLOAD,2023-11-19 14:12:54,15.08844169,0.0001653,53.2199,60.1709,91.2738,268.8443,5.2857e-05,5.53e-06,0.0,0 STARLINK-4717,1 53705U 22107F   23323.59230275  .00000553  00000-0  52857-4 0  9992,2 53705  53.2199  60.1709 0001653  91.2738 268.8443 15.08844169 67878,6917.868,95.437,540.876,538.589,0.0
53705.0,STARLINK-4717,PAYLOAD,2023-11-20 14:03:41,15.08845925,0.0001295,53.2179,55.7099,87.13,272.984,0.000101,1.32e-05,0.0,0 STARLINK-4717,1 53705U 22107F   23324.58589975  .00001320  00000-0  10100-3 0  9993,2 53705  53.2179  55.7099 0001295  87.1300 272.9840 15.08845925 68025,6917.862,95.437,540.623,538.831,0.0
53705.0,STARLINK-4717,PAYLOAD,2023-11-21 10:43:42,15.08845453,0.0001513,53.2179,51.8442,89.1198,270.9967,8.9726e-05,1.14e-05,0.0,0 STARLINK-4717,1 53705U 22107F   23325.44701959  .00001140  00000-0  89726-4 0  9998,2 53705  53.2179  51.8442 0001513  89.1198 270.9967 15.08845453 67409,6917.864,95.437,540.775,538.682,0.0
53705.0,STARLINK-4717,PAYLOAD,2023-11-21 12:19:05,15.08847797,0.0001431,53.2184,51.5469,82.8132,277.3023,8.5764e-05,1.078e-05,0.0,0 STARLINK-4717,1 53705U 22107F   23325.51325842  .00001078  00000-0  85764-4 0  9997,2 53705  53.2184  51.5469 0001431  82.8132 277.3023 15.08847797 68169,6917.857,95.437,540.712,538.732,0.0
53705.0,STARLINK-4717,PAYLOAD,2023-11-21 15:29:51,15.08854305,0.0001279,53.2184,50.9508,97.68,262.4337,0.00012632,1.724e-05,0.0,0 STARLINK-4717,1 53705U 22107F   23325.64573178  .00001724  00000-0  12632-3 0  9999,2 53705  53.2184  50.9508 0001279  97.6800 262.4337 15.08854305 68180,6917.837,95.437,540.586,538.817,0.0
53705.0,STARLINK-4717,PAYLOAD,2023-11-22 12:09:51,15.08856919,0.0001747,53.2205,47.0816,109.0691,251.049,7.5775e-05,9.19e-06,0.0,0 STARLINK-4717,1 53705U 22107F   23326.50684609  .00000919  00000-0  75775-4 0  9990,2 53705  53.2205  47.0816 0001747 109.0691 251.0490 15.08856919 68311,6917.829,95.436,540.902,538.485,0.0
53705.0,STARLINK-4717,PAYLOAD,2023-11-23 10:25:16,15.0883992,0.0001848,53.2192,42.9191,120.3546,239.763,-3.9357e-05,-9.14e-06,0.0,0 STARLINK-4717,1 53705U 22107F   23327.43421617 -.00000914  00000-0 -39357-4 0  9994,2 53705  53.2192  42.9191 0001848 120.3546 239.7630 15.08839920 67707,6917.881,95.438,541.024,538.467,0.0
53705.0,STARLINK-4717,PAYLOAD,2023-11-24 11:51:27,15.088357,0.0001615,53.2192,38.1657,97.4025,262.7151,-0.00013789,-2.482e-05,0.0,0 STARLINK-4717,1 53705U 22107F   23328.49407216 -.00002482  00000-0 -13789-3 0  9992,2 53705  53.2192  38.1657 0001615  97.4025 262.7151 15.08835700 67862,6917.894,95.438,540.876,538.641,0.0
53705.0,STARLINK-4717,PAYLOAD,2023-11-24 13:26:50,15.08835636,0.0001672,53.219,37.8656,101.0877,259.0304,-0.00011188,-2.068e-05,0.0,0 STARLINK-4717,1 53705U 22107F   23328.56031138 -.00002068  00000-0 -11188-3 0  9997,2 53705  53.2190  37.8656 0001672 101.0877 259.0304 15.08835636 68627,6917.894,95.438,540.915,538.602,0.0
53705.0,STARLINK-4717,PAYLOAD,2023-11-25 10:06:51,15.08836271,0.0001636,53.2188,34.0072,86.3587,273.7592,0.00018207,2.611e-05,0.0,0 STARLINK-4717,1 53705U 22107F   23329.42142820  .00002611  00000-0  18207-3 0  9995,2 53705  53.2188  34.0072 0001636  86.3587 273.7592 15.08836271 68750,6917.892,95.438,540.889,538.625,0.0
53705.0,STARLINK-4717,PAYLOAD,2023-11-26 03:36:05,15.08851831,0.000155,53.2177,30.7341,81.1911,278.9257,0.00024698,3.646e-05,0.0,0 STARLINK-4717,1 53705U 22107F   23330.15005894  .00003646  00000-0  24698-3 0  9996,2 53705  53.2177  30.7341 0001550  81.1911 278.9257 15.08851831 68113,6917.844,95.437,540.781,538.637,0.0
53705.0,STARLINK-4717,PAYLOAD,2023-11-26 13:08:23,15.08866864,0.0001645,53.2185,28.9454,94.4436,265.6744,0.00040912,6.234e-05,0.0,0 STARLINK-4717,1 53705U 22107F   23330.54749131  .00006234  00000-0  40912-3 0  9991,2 53705  53.2185  28.9454 0001645  94.4436 265.6744 15.08866864 68925,6917.798,95.436,540.801,538.525,0.0
53705.0,STARLINK-4717,PAYLOAD,2023-11-27 03:26:53,15.08829702,0.0002013,53.2187,26.2734,92.0216,268.1007,-0.00027059,-4.591e-05,0.0,0 STARLINK-4717,1 53705U 22107F   23331.14367104 -.00004591  00000-0 -27059-3 0  9997,2 53705  53.2187  26.2734 0002013  92.0216 268.1007 15.08829702 68266,6917.912,95.438,541.169,538.384,0.0
53705.0,STARLINK-4717,PAYLOAD,2023-11-27 11:23:49,15.0881717,0.000166,53.2189,24.7831,95.7712,264.347,-0.00040596,-6.739e-05,0.0,0 STARLINK-4717,1 53705U 22107F   23331.47488081 -.00006739  00000-0 -40596-3 0  9998,2 53705  53.2189  24.7831 0001660  95.7712 264.3470 15.08817170 68311,6917.95,95.439,540.964,538.667,0.0
53705.0,STARLINK-4717,PAYLOAD,2023-11-28 03:17:40,15.08845,0.0001395,53.2196,21.8086,91.0472,269.068,-0.00012387,-2.259e-05,0.0,0 STARLINK-4717,1 53705U 22107F   23332.13727785 -.00002259  00000-0 -12387-3 0  9999,2 53705  53.2196  21.8086 0001395  91.0472 269.0680 15.08845000 68415,6917.865,95.437,540.695,538.765,0.0
53705.0,STARLINK-4717,PAYLOAD,2023-11-28 09:39:12,15.08851793,0.0002026,53.2193,20.6217,93.5019,266.6205,-1.2453e-05,-4.87e-06,0.0,0 STARLINK-4717,1 53705U 22107F   23332.40223099 -.00000487  00000-0 -12453-4 0  9994,2 53705  53.2193  20.6217 0002026  93.5019 266.6205 15.08851793 68457,6917.844,95.437,541.111,538.308,0.0
53705.0,STARLINK-4717,PAYLOAD,2023-11-29 09:30:00,15.08833488,0.0002315,53.219,16.1646,62.3373,297.7854,0.00041639,6.344e-05,0.0,0 STARLINK-4717,1 53705U 22107F   23333.39583871  .00006344  00000-0  41639-3 0  9993,2 53705  53.2190  16.1646 0002315  62.3373 297.7854 15.08833488 68601,6917.9,95.438,541.367,538.164,0.0
53705.0,STARLINK-4717,PAYLOAD,2023-11-30 12:31:33,15.08855713,0.0001927,53.219,11.1037,95.6924,264.4288,6.4828e-05,7.44e-06,0.0,0 STARLINK-4717,1 53705U 22107F   23334.52191051  .00000744  00000-0  64828-4 0  9998,2 53705  53.2190  11.1037 0001927  95.6924 264.4288 15.08855713 68774,6917.832,95.437,541.03,538.364,0.0
53705.0,STARLINK-4717,PAYLOAD,2023-12-01 02:50:01,15.08839931,0.0002012,53.2191,8.4204,90.5579,269.5643,-0.0001525,-2.714e-05,0.0,0 STARLINK-4717,1 53705U 22107F   23335.11807770 -.00002714  00000-0 -15250-3 0  9991,2 53705  53.2191   8.4204 0002012  90.5579 269.5643 15.08839931 68861,6917.881,95.438,541.137,538.354,0.0
